TITAN 4B R/B            
1 26474U 00047B   25303.77891093  .00006870  00000+0  44051-3 0  9998
2 26474  67.9910  45.4677 0043317 194.0024 165.9928 15.08301325373313
ENVISAT                 
1 27386U 02009A   25303.85785758  .00000218  00000+0  84549-4 0  9997
2 27386  98.3525 255.7015 0001351  84.9381 303.3349 14.38974956240500
IDEFIX & ARIANE 42P R/B 
1 27422U 02021B   25303.78925979  .00000448  00000+0  18714-3 0  9990
2 27422  98.5716 239.0532 0011127 205.4376 154.6261 14.30902337225442
AQUA                    
1 27424U 02022A   25303.89898146  .00001650  00000+0  34149-3 0  9996
2 27424  98.3970 264.1015 0001331  50.6833 330.0546 14.61652524249775
CZ-4B R/B               
1 27432U 02024C   25303.14339737  .00000060  00000+0  54088-4 0  9990
2 27432  98.9067 352.0528 0050704  34.7541  24.7419 14.14514477210787
MIDORI II (ADEOS-II)    
1 27597U 02056A   25303.86945191  .00000441  00000+0  19166-3 0  9993
2 27597  98.7562 256.6171 0001833  51.5929 308.5417 14.29160640191757
H-2A R/B                
1 27601U 02056E   25303.82203228  .00000423  00000+0  16322-3 0  9994
2 27601  98.2996 264.3035 0070031 187.6398 201.4427 14.33630123195503
CZ-4B R/B               
1 28059U 03049C   25303.19886399  .00000652  00000+0  16171-3 0  9997
2 28059  98.6757 288.1251 0047086 270.0740  89.5060 14.54846760167625
CZ-2C R/B               
1 28222U 04012C   25303.13344359  .00041217  00000+0  68583-3 0  9995
2 28222  97.7501 352.2702 0020787  71.9544 288.3970 15.51687991183957
SL-16 R/B               
1 28353U 04021B   25303.27407481 -.00000243  00000+0 -10160-3 0  9995
2 28353  70.9981 146.1788 0007195 247.7081 112.3279 14.14570768104398
CZ-4B R/B               
1 28415U 04035C   25303.04570659  .00010896  00000+0  41405-3 0  9991
2 28415  97.3677 333.9903 0035860  72.6058 287.9097 15.26361256159960
CZ-2C R/B               
1 28480U 04046B   25303.76415029  .00000227  00000+0  99300-4 0  9998
2 28480  98.1945 221.8226 0139493 178.5928 181.5674 14.26912265 89975
