CCSDS_OMM_VERS = 2.0
CREATION_DATE  = 
ORIGINATOR     = 

OBJECT_NAME    = TITAN 4B R/B
OBJECT_ID      = 2000-047B
CENTER_NAME    = EARTH
REF_FRAME      = TEME
TIME_SYSTEM    = UTC
MEAN_ELEMENT_THEORY = SGP/SGP4

EPOCH          = 2025-10-30T18:41:37.904352
MEAN_MOTION    = 15.08301325
ECCENTRICITY   = .0043317
INCLINATION    = 67.9910
RA_OF_ASC_NODE = 45.4677
ARG_OF_PERICENTER = 194.0024
MEAN_ANOMALY   = 165.9928

EPHEMERIS_TYPE = 0
CLASSIFICATION_TYPE = U
NORAD_CAT_ID   = 26474
ELEMENT_SET_NO = 999
REV_AT_EPOCH   = 37331
BSTAR          = .44051E-3
MEAN_MOTION_DOT = .687E-4
MEAN_MOTION_DDOT = 0

CCSDS_OMM_VERS = 2.0
CREATION_DATE  = 
ORIGINATOR     = 

OBJECT_NAME    = ENVISAT
OBJECT_ID      = 2002-009A
CENTER_NAME    = EARTH
REF_FRAME      = TEME
TIME_SYSTEM    = UTC
MEAN_ELEMENT_THEORY = SGP/SGP4

EPOCH          = 2025-10-30T20:35:18.894912
MEAN_MOTION    = 14.38974956
ECCENTRICITY   = .0001351
INCLINATION    = 98.3525
RA_OF_ASC_NODE = 255.7015
ARG_OF_PERICENTER = 84.9381
MEAN_ANOMALY   = 303.3349

EPHEMERIS_TYPE = 0
CLASSIFICATION_TYPE = U
NORAD_CAT_ID   = 27386
ELEMENT_SET_NO = 999
REV_AT_EPOCH   = 24050
BSTAR          = .84549E-4
MEAN_MOTION_DOT = .218E-5
MEAN_MOTION_DDOT = 0

CCSDS_OMM_VERS = 2.0
CREATION_DATE  = 
ORIGINATOR     = 

OBJECT_NAME    = IDEFIX & ARIANE 42P R/B
OBJECT_ID      = 2002-021B
CENTER_NAME    = EARTH
REF_FRAME      = TEME
TIME_SYSTEM    = UTC
MEAN_ELEMENT_THEORY = SGP/SGP4

EPOCH          = 2025-10-30T18:56:32.045856
MEAN_MOTION    = 14.30902337
ECCENTRICITY   = .0011127
INCLINATION    = 98.5716
RA_OF_ASC_NODE = 239.0532
ARG_OF_PERICENTER = 205.4376
MEAN_ANOMALY   = 154.6261

EPHEMERIS_TYPE = 0
CLASSIFICATION_TYPE = U
NORAD_CAT_ID   = 27422
ELEMENT_SET_NO = 999
REV_AT_EPOCH   = 22544
BSTAR          = .18714E-3
MEAN_MOTION_DOT = .448E-5
MEAN_MOTION_DDOT = 0

CCSDS_OMM_VERS = 2.0
CREATION_DATE  = 
ORIGINATOR     = 

OBJECT_NAME    = AQUA
OBJECT_ID      = 2002-022A
CENTER_NAME    = EARTH
REF_FRAME      = TEME
TIME_SYSTEM    = UTC
MEAN_ELEMENT_THEORY = SGP/SGP4

EPOCH          = 2025-10-30T21:34:31.998144
MEAN_MOTION    = 14.61652524
ECCENTRICITY   = .0001331
INCLINATION    = 98.3970
RA_OF_ASC_NODE = 264.1015
ARG_OF_PERICENTER = 50.6833
MEAN_ANOMALY   = 330.0546

EPHEMERIS_TYPE = 0
CLASSIFICATION_TYPE = U
NORAD_CAT_ID   = 27424
ELEMENT_SET_NO = 999
REV_AT_EPOCH   = 24977
BSTAR          = .34149E-3
MEAN_MOTION_DOT = .165E-4
MEAN_MOTION_DDOT = 0

CCSDS_OMM_VERS = 2.0
CREATION_DATE  = 
ORIGINATOR     = 

OBJECT_NAME    = CZ-4B R/B
OBJECT_ID      = 2002-024C
CENTER_NAME    = EARTH
REF_FRAME      = TEME
TIME_SYSTEM    = UTC
MEAN_ELEMENT_THEORY = SGP/SGP4

EPOCH          = 2025-10-30T03:26:29.532768
MEAN_MOTION    = 14.14514477
ECCENTRICITY   = .00507046
INCLINATION    = 98.9067
RA_OF_ASC_NODE = 352.0528
ARG_OF_PERICENTER = 34.7541
MEAN_ANOMALY   = 24.7419

EPHEMERIS_TYPE = 0
CLASSIFICATION_TYPE = U
NORAD_CAT_ID   = 27432
ELEMENT_SET_NO = 999
REV_AT_EPOCH   = 21078
BSTAR          = .54088193E-4
MEAN_MOTION_DOT = .6E-6
MEAN_MOTION_DDOT = 0

CCSDS_OMM_VERS = 2.0
CREATION_DATE  = 
ORIGINATOR     = 

OBJECT_NAME    = MIDORI II (ADEOS-II)
OBJECT_ID      = 2002-056A
CENTER_NAME    = EARTH
REF_FRAME      = TEME
TIME_SYSTEM    = UTC
MEAN_ELEMENT_THEORY = SGP/SGP4

EPOCH          = 2025-10-30T20:52:00.645024
MEAN_MOTION    = 14.29160640
ECCENTRICITY   = .0001833
INCLINATION    = 98.7562
RA_OF_ASC_NODE = 256.6171
ARG_OF_PERICENTER = 51.5929
MEAN_ANOMALY   = 308.5417

EPHEMERIS_TYPE = 0
CLASSIFICATION_TYPE = U
NORAD_CAT_ID   = 27597
ELEMENT_SET_NO = 999
REV_AT_EPOCH   = 19175
BSTAR          = .19166E-3
MEAN_MOTION_DOT = .441E-5
MEAN_MOTION_DDOT = 0

CCSDS_OMM_VERS = 2.0
CREATION_DATE  = 
ORIGINATOR     = 

OBJECT_NAME    = H-2A R/B
OBJECT_ID      = 2002-056E
CENTER_NAME    = EARTH
REF_FRAME      = TEME
TIME_SYSTEM    = UTC
MEAN_ELEMENT_THEORY = SGP/SGP4

EPOCH          = 2025-10-30T19:43:43.588992
MEAN_MOTION    = 14.33630123
ECCENTRICITY   = .0070031
INCLINATION    = 98.2996
RA_OF_ASC_NODE = 264.3035
ARG_OF_PERICENTER = 187.6398
MEAN_ANOMALY   = 201.4427

EPHEMERIS_TYPE = 0
CLASSIFICATION_TYPE = U
NORAD_CAT_ID   = 27601
ELEMENT_SET_NO = 999
REV_AT_EPOCH   = 19550
BSTAR          = .16322E-3
MEAN_MOTION_DOT = .423E-5
MEAN_MOTION_DDOT = 0

CCSDS_OMM_VERS = 2.0
CREATION_DATE  = 
ORIGINATOR     = 

OBJECT_NAME    = CZ-4B R/B
OBJECT_ID      = 2003-049C
CENTER_NAME    = EARTH
REF_FRAME      = TEME
TIME_SYSTEM    = UTC
MEAN_ELEMENT_THEORY = SGP/SGP4

EPOCH          = 2025-10-30T04:46:21.848736
MEAN_MOTION    = 14.54846760
ECCENTRICITY   = .00470864
INCLINATION    = 98.6757
RA_OF_ASC_NODE = 288.1251
ARG_OF_PERICENTER = 270.0740
MEAN_ANOMALY   = 89.5060

EPHEMERIS_TYPE = 0
CLASSIFICATION_TYPE = U
NORAD_CAT_ID   = 28059
ELEMENT_SET_NO = 999
REV_AT_EPOCH   = 16762
BSTAR          = .16170586E-3
MEAN_MOTION_DOT = .652E-5
MEAN_MOTION_DDOT = 0

CCSDS_OMM_VERS = 2.0
CREATION_DATE  = 
ORIGINATOR     = 

OBJECT_NAME    = CZ-2C R/B
OBJECT_ID      = 2004-012C
CENTER_NAME    = EARTH
REF_FRAME      = TEME
TIME_SYSTEM    = UTC
MEAN_ELEMENT_THEORY = SGP/SGP4

EPOCH          = 2025-10-30T03:12:09.526176
MEAN_MOTION    = 15.51687991
ECCENTRICITY   = .00207876
INCLINATION    = 97.7501
RA_OF_ASC_NODE = 352.2702
ARG_OF_PERICENTER = 71.9544
MEAN_ANOMALY   = 288.3970

EPHEMERIS_TYPE = 0
CLASSIFICATION_TYPE = U
NORAD_CAT_ID   = 28222
ELEMENT_SET_NO = 999
REV_AT_EPOCH   = 18395
BSTAR          = .68583409E-3
MEAN_MOTION_DOT = .41217E-3
MEAN_MOTION_DDOT = 0

CCSDS_OMM_VERS = 2.0
CREATION_DATE  = 
ORIGINATOR     = 

OBJECT_NAME    = SL-16 R/B
OBJECT_ID      = 2004-021B
CENTER_NAME    = EARTH
REF_FRAME      = TEME
TIME_SYSTEM    = UTC
MEAN_ELEMENT_THEORY = SGP/SGP4

EPOCH          = 2025-10-30T06:34:40.063584
MEAN_MOTION    = 14.14570768
ECCENTRICITY   = .00071954
INCLINATION    = 70.9981
RA_OF_ASC_NODE = 146.1788
ARG_OF_PERICENTER = 247.7081
MEAN_ANOMALY   = 112.3279

EPHEMERIS_TYPE = 0
CLASSIFICATION_TYPE = U
NORAD_CAT_ID   = 28353
ELEMENT_SET_NO = 999
REV_AT_EPOCH   = 10439
BSTAR          = -.1016029E-3
MEAN_MOTION_DOT = -.243E-5
MEAN_MOTION_DDOT = 0

CCSDS_OMM_VERS = 2.0
CREATION_DATE  = 
ORIGINATOR     = 

OBJECT_NAME    = CZ-4B R/B
OBJECT_ID      = 2004-035C
CENTER_NAME    = EARTH
REF_FRAME      = TEME
TIME_SYSTEM    = UTC
MEAN_ELEMENT_THEORY = SGP/SGP4

EPOCH          = 2025-10-30T01:05:49.049376
MEAN_MOTION    = 15.26361256
ECCENTRICITY   = .00358609
INCLINATION    = 97.3677
RA_OF_ASC_NODE = 333.9903
ARG_OF_PERICENTER = 72.6058
MEAN_ANOMALY   = 287.9097

EPHEMERIS_TYPE = 0
CLASSIFICATION_TYPE = U
NORAD_CAT_ID   = 28415
ELEMENT_SET_NO = 999
REV_AT_EPOCH   = 15996
BSTAR          = .41404645E-3
MEAN_MOTION_DOT = .10896E-3
MEAN_MOTION_DDOT = 0

CCSDS_OMM_VERS = 2.0
CREATION_DATE  = 
ORIGINATOR     = 

OBJECT_NAME    = CZ-2C R/B
OBJECT_ID      = 2004-046B
CENTER_NAME    = EARTH
REF_FRAME      = TEME
TIME_SYSTEM    = UTC
MEAN_ELEMENT_THEORY = SGP/SGP4

EPOCH          = 2025-10-30T18:20:22.585056
MEAN_MOTION    = 14.26912265
ECCENTRICITY   = .0139493
INCLINATION    = 98.1945
RA_OF_ASC_NODE = 221.8226
ARG_OF_PERICENTER = 178.5928
MEAN_ANOMALY   = 181.5674

EPHEMERIS_TYPE = 0
CLASSIFICATION_TYPE = U
NORAD_CAT_ID   = 28480
ELEMENT_SET_NO = 999
REV_AT_EPOCH   = 8997
BSTAR          = .993E-4
MEAN_MOTION_DOT = .227E-5
MEAN_MOTION_DDOT = 0

